{"type": "FeatureCollection", "features": [ {"type": "Feature", "properties": {"norad_id": 37216, "name": "COSMO-SKYMED 4", "group": "resource", "lat": -72.34082857189772, "lon": -153.75696002525495, "alt_km": 630.6853218880806, "timestamp": "2025-12-25T07:41:09.379765+00:00", "meta": {"OBJECT_NAME": "COSMO-SKYMED 4", "OBJECT_ID": "2010-060A", "EPOCH": "2025-12-24T23:55:07.835808", "MEAN_MOTION": 14.82159655, "ECCENTRICITY": 0.00013703, "INCLINATION": 97.8803, "RA_OF_ASC_NODE": 180.1352, "ARG_OF_PERICENTER": 81.4862, "MEAN_ANOMALY": 278.6507, "EPHEMERIS_TYPE": 0, "CLASSIFICATION_TYPE": "U", "NORAD_CAT_ID": 37216, "ELEMENT_SET_NO": 999, "REV_AT_EPOCH": 81876, "BSTAR": 0.00012041216, "MEAN_MOTION_DOT": 9.07e-06, "MEAN_MOTION_DDOT": 0}, "tle": {"line1": "1 37216U 10060A   25358.99661847  .00000907  00000+0  12041-3 0  9995", "line2": "2 37216  97.8803 180.1352 0001370  81.4862 278.6507 14.82159655818767"}}, "geometry": {"type": "Point", "coordinates": [-153.75696002525495, -72.34082857189772]}}, {"type": "Feature", "properties": {"norad_id": 37387, "name": "RESOURCESAT-2", "group": "resource", "lat": 32.586244827744196, "lon": 57.14136044906693, "alt_km": 814.1367729693848, "timestamp": "2025-12-25T07:41:09.379776+00:00", "meta": {"OBJECT_NAME": "RESOURCESAT-2", "OBJECT_ID": "2011-015A", "EPOCH": "2025-12-24T21:23:46.189248", "MEAN_MOTION": 14.21601897, "ECCENTRICITY": 0.00058264, "INCLINATION": 98.786, "RA_OF_ASC_NODE": 62.3879, "ARG_OF_PERICENTER": 9.3699, "MEAN_ANOMALY": 350.7586, "EPHEMERIS_TYPE": 0, "CLASSIFICATION_TYPE": "U", "NORAD_CAT_ID": 37387, "ELEMENT_SET_NO": 999, "REV_AT_EPOCH": 76141, "BSTAR": 8.3663355e-05, "MEAN_MOTION_DOT": 1.39e-06, "MEAN_MOTION_DDOT": 0}, "tle": {"line1": "1 37387U 11015A   25358.89150682  .00000139  00000+0  83663-4 0  9990", "line2": "2 37387  98.7860  62.3879 0005826   9.3699 350.7586 14.21601897761412"}}, "geometry": {"type": "Point", "coordinates": [57.14136044906693, 32.586244827744196]}}, {"type": "Feature", "properties": {"norad_id": 37781, "name": "HAIYANG-2A", "group": "resource", "lat": -51.85582256444433, "lon": 12.153855265698901, "alt_km": 975.4678612036514, "timestamp": "2025-12-25T07:41:09.379786+00:00", "meta": {"OBJECT_NAME": "HAIYANG-2A", "OBJECT_ID": "2011-043A", "EPOCH": "2025-12-24T23:14:03.031296", "MEAN_MOTION": 13.78836515, "ECCENTRICITY": 0.00015732, "INCLINATION": 99.3377, "RA_OF_ASC_NODE": 359.7139, "ARG_OF_PERICENTER": 68.2559, "MEAN_ANOMALY": 291.876, "EPHEMERIS_TYPE": 0, "CLASSIFICATION_TYPE": "U", "NORAD_CAT_ID": 37781, "ELEMENT_SET_NO": 999, "REV_AT_EPOCH": 72267, "BSTAR": 6.6150425e-05, "MEAN_MOTION_DOT": 2.3e-07, "MEAN_MOTION_DDOT": 0}, "tle": {"line1": "1 37781U 11043A   25358.96809064  .00000023  00000+0  66150-4 0  9996", "line2": "2 37781  99.3377 359.7139 0001573  68.2559 291.8760 13.78836515722678"}}, "geometry": {"type": "Point", "coordinates": [12.153855265698901, -51.85582256444433]}}, {"type": "Feature", "properties": {"norad_id": 37791, "name": "RASAT", "group": "resource", "lat": 47.30381350876795, "lon": -82.76937160983118, "alt_km": 667.3769302755536, "timestamp": "2025-12-25T07:41:09.379797+00:00", "meta": {"OBJECT_NAME": "RASAT", "OBJECT_ID": "2011-044D", "EPOCH": "2025-12-24T23:25:43.558176", "MEAN_MOTION": 14.67925281, "ECCENTRICITY": 0.00213085, "INCLINATION": 98.0645, "RA_OF_ASC_NODE": 88.0521, "ARG_OF_PERICENTER": 28.0624, "MEAN_ANOMALY": 86.6519, "EPHEMERIS_TYPE": 0, "CLASSIFICATION_TYPE": "U", "NORAD_CAT_ID": 37791, "ELEMENT_SET_NO": 999, "REV_AT_EPOCH": 76762, "BSTAR": 0.0001131332, "MEAN_MOTION_DOT": 6e-06, "MEAN_MOTION_DDOT": 0}, "tle": {"line1": "1 37791U 11044D   25358.97619859  .00000600  00000+0  11313-3 0  9991", "line2": "2 37791  98.0645  88.0521 0021308  28.0624  86.6519 14.67925281767629"}}, "geometry": {"type": "Point", "coordinates": [-82.76937160983118, 47.30381350876795]}}, {"type": "Feature", "properties": {"norad_id": 37841, "name": "SRMSAT", "group": "resource", "lat": 17.18226483346036, "lon": 90.17283560049125, "alt_km": 841.9651921706354, "timestamp": "2025-12-25T07:41:09.379808+00:00", "meta": {"OBJECT_NAME": "SRMSAT", "OBJECT_ID": "2011-058D", "EPOCH": "2025-12-24T18:34:49.624608", "MEAN_MOTION": 14.11515378, "ECCENTRICITY": 0.00119944, "INCLINATION": 19.973, "RA_OF_ASC_NODE": 35.1176, "ARG_OF_PERICENTER": 85.055, "MEAN_ANOMALY": 74.1634, "EPHEMERIS_TYPE": 0, "CLASSIFICATION_TYPE": "U", "NORAD_CAT_ID": 37841, "ELEMENT_SET_NO": 999, "REV_AT_EPOCH": 73314, "BSTAR": 8.7140631e-05, "MEAN_MOTION_DOT": 4.25e-06, "MEAN_MOTION_DDOT": 0}, "tle": {"line1": "1 37841U 11058D   25358.77418547  .00000425  00000+0  87141-4 0  9999", "line2": "2 37841  19.9730  35.1176 0011994  85.0550  74.1634 14.11515378733143"}}, "geometry": {"type": "Point", "coordinates": [90.17283560049125, 17.18226483346036]}}, {"type": "Feature", "properties": {"norad_id": 38012, "name": "PLEIADES 1A", "group": "resource", "lat": -43.63499675338629, "lon": -115.9895521903937, "alt_km": 705.1177795326612, "timestamp": "2025-12-25T07:41:09.379818+00:00", "meta": {"OBJECT_NAME": "PLEIADES 1A", "OBJECT_ID": "2011-076F", "EPOCH": "2025-12-24T22:54:09.237312", "MEAN_MOTION": 14.58571774, "ECCENTRICITY": 0.00010838, "INCLINATION": 98.1808, "RA_OF_ASC_NODE": 71.5337, "ARG_OF_PERICENTER": 75.7197, "MEAN_ANOMALY": 27.8438, "EPHEMERIS_TYPE": 0, "CLASSIFICATION_TYPE": "U", "NORAD_CAT_ID": 38012, "ELEMENT_SET_NO": 999, "REV_AT_EPOCH": 74659, "BSTAR": 7.907043e-05, "MEAN_MOTION_DOT": 3.22e-06, "MEAN_MOTION_DDOT": 0}, "tle": {"line1": "1 38012U 11076F   25358.95427358  .00000322  00000+0  79070-4 0  9998", "line2": "2 38012  98.1808  71.5337 0001083  75.7197  27.8438 14.58571774746596"}}, "geometry": {"type": "Point", "coordinates": [-115.9895521903937, -43.63499675338629]}}, {"type": "Feature", "properties": {"norad_id": 38038, "name": "ZIYUAN 1-02C (ZY 1-02C)", "group": "resource", "lat": -74.71903519221496, "lon": 97.98191509521236, "alt_km": 777.7326658145575, "timestamp": "2025-12-25T07:41:09.379828+00:00", "meta": {"OBJECT_NAME": "ZIYUAN 1-02C (ZY 1-02C)", "OBJECT_ID": "2011-079A", "EPOCH": "2025-12-25T00:15:47.304288", "MEAN_MOTION": 14.38024879, "ECCENTRICITY": 0.00075647, "INCLINATION": 98.4315, "RA_OF_ASC_NODE": 64.7976, "ARG_OF_PERICENTER": 106.5266, "MEAN_ANOMALY": 16.0847, "EPHEMERIS_TYPE": 0, "CLASSIFICATION_TYPE": "U", "NORAD_CAT_ID": 38038, "ELEMENT_SET_NO": 999, "REV_AT_EPOCH": 73417, "BSTAR": 0.00013598224, "MEAN_MOTION_DOT": 3.68e-06, "MEAN_MOTION_DDOT": 0}, "tle": {"line1": "1 38038U 11079A   25359.01096417  .00000368  00000+0  13598-3 0  9997", "line2": "2 38038  98.4315  64.7976 0007564 106.5266  16.0847 14.38024879734175"}}, "geometry": {"type": "Point", "coordinates": [97.98191509521236, -74.71903519221496]}}, {"type": "Feature", "properties": {"norad_id": 38338, "name": "ARIRANG-3 (KOMPSAT-3)", "group": "resource", "lat": -79.91058216705112, "lon": 78.53680728638119, "alt_km": 692.0383303388089, "timestamp": "2025-12-25T07:41:09.379839+00:00", "meta": {"OBJECT_NAME": "ARIRANG-3 (KOMPSAT-3)", "OBJECT_ID": "2012-025B", "EPOCH": "2025-12-24T22:15:56.664288", "MEAN_MOTION": 14.61728069, "ECCENTRICITY": 0.00047036, "INCLINATION": 98.334, "RA_OF_ASC_NODE": 313.6101, "ARG_OF_PERICENTER": 294.9098, "MEAN_ANOMALY": 65.1614, "EPHEMERIS_TYPE": 0, "CLASSIFICATION_TYPE": "U", "NORAD_CAT_ID": 38338, "ELEMENT_SET_NO": 999, "REV_AT_EPOCH": 72588, "BSTAR": 0.00012866232, "MEAN_MOTION_DOT": 5.93e-06, "MEAN_MOTION_DDOT": 0}, "tle": {"line1": "1 38338U 12025B   25358.92773917  .00000593  00000+0  12866-3 0  9995", "line2": "2 38338  98.3340 313.6101 0004703 294.9098  65.1614 14.61728069725881"}}, "geometry": {"type": "Point", "coordinates": [78.53680728638119, -79.91058216705112]}}, {"type": "Feature", "properties": {"norad_id": 38709, "name": "EXACTVIEW-1 (ADS-1B)", "group": "resource", "lat": 37.391452707648796, "lon": 101.04518018280113, "alt_km": 804.9452165796256, "timestamp": "2025-12-25T07:41:09.379850+00:00", "meta": {"OBJECT_NAME": "EXACTVIEW-1 (ADS-1B)", "OBJECT_ID": "2012-039C", "EPOCH": "2025-12-24T19:42:42.645024", "MEAN_MOTION": 14.2491263, "ECCENTRICITY": 0.00101426, "INCLINATION": 98.9638, "RA_OF_ASC_NODE": 107.4649, "ARG_OF_PERICENTER": 317.9424, "MEAN_ANOMALY": 42.0975, "EPHEMERIS_TYPE": 0, "CLASSIFICATION_TYPE": "U", "NORAD_CAT_ID": 38709, "ELEMENT_SET_NO": 999, "REV_AT_EPOCH": 69787, "BSTAR": 8.4450506e-05, "MEAN_MOTION_DOT": 1.51e-06, "MEAN_MOTION_DDOT": 0}, "tle": {"line1": "1 38709U 12039C   25358.82132691  .00000151  00000+0  84451-4 0  9999", "line2": "2 38709  98.9638 107.4649 0010142 317.9424  42.0975 14.24912630697877"}}, "geometry": {"type": "Point", "coordinates": [101.04518018280113, 37.391452707648796]}}, {"type": "Feature", "properties": {"norad_id": 38755, "name": "SPOT 6", "group": "resource", "lat": 32.14187597462458, "lon": -110.95871068564024, "alt_km": 695.6991577193758, "timestamp": "2025-12-25T07:41:09.379860+00:00", "meta": {"OBJECT_NAME": "SPOT 6", "OBJECT_ID": "2012-047A", "EPOCH": "2025-12-24T22:46:48.839232", "MEAN_MOTION": 14.58541726, "ECCENTRICITY": 0.00012616, "INCLINATION": 98.1554, "RA_OF_ASC_NODE": 63.5077, "ARG_OF_PERICENTER": 79.0114, "MEAN_ANOMALY": 281.1228, "EPHEMERIS_TYPE": 0, "CLASSIFICATION_TYPE": "U", "NORAD_CAT_ID": 38755, "ELEMENT_SET_NO": 999, "REV_AT_EPOCH": 70765, "BSTAR": 3.7715583e-05, "MEAN_MOTION_DOT": 1.3e-06, "MEAN_MOTION_DDOT": 0}, "tle": {"line1": "1 38755U 12047A   25358.94917638  .00000130  00000+0  37716-4 0  9993", "line2": "2 38755  98.1554  63.5077 0001261  79.0114 281.1228 14.58541726707654"}}, "geometry": {"type": "Point", "coordinates": [-110.95871068564024, 32.14187597462458]}}]}